$$SOE
2461295.500000000, A.D. 2026-Sep-12 00:00:00.0000, -1.995720724539263E+08, -4.375958364258838E+08, -6.632589998852295E+07,
2461302.500000000, A.D. 2026-Sep-19 00:00:00.0000, -1.901970919350161E+08, -4.406315449122374E+08, -6.703795212283245E+07,
2461309.500000000, A.D. 2026-Sep-26 00:00:00.0000, -1.807409602838506E+08, -4.434792975663283E+08, -6.772140369561562E+07,
2461316.500000000, A.D. 2026-Oct-03 00:00:00.0000, -1.712072683832561E+08, -4.461367917852916E+08, -6.837579663250589E+07,
2461323.500000000, A.D. 2026-Oct-10 00:00:00.0000, -1.615996805044400E+08, -4.486017773129655E+08, -6.900067962236050E+07,
2461330.500000000, A.D. 2026-Oct-17 00:00:00.0000, -1.519219344399851E+08, -4.508720584763929E+08, -6.959560848420760E+07,
2461337.500000000, A.D. 2026-Oct-24 00:00:00.0000, -1.421778415833206E+08, -4.529454965790150E+08, -7.016014655317393E+07,
2461344.500000000, A.D. 2026-Oct-31 00:00:00.0000, -1.323712868518371E+08, -4.548200125169563E+08, -7.069386509985995E+07,
2461351.500000000, A.D. 2026-Nov-07 00:00:00.0000, -1.225062281105914E+08, -4.564935895437057E+08, -7.119634380804804E+07,
2461358.500000000, A.D. 2026-Nov-14 00:00:00.0000, -1.125866948916672E+08, -4.579642752947354E+08, -7.166717125634944E+07,
2461365.500000000, A.D. 2026-Nov-21 00:00:00.0000, -1.026167882166578E+08, -4.592301823883516E+08, -7.210594518140090E+07,
2461372.500000000, A.D. 2026-Nov-28 00:00:00.0000, -9.260068251534152E+07, -4.602894906084131E+08, -7.251227267629817E+07,
2461379.500000000, A.D. 2026-Dec-05 00:00:00.0000, -8.254262601573697E+07, -4.611404513236948E+08, -7.288577070950222E+07,
2461386.500000000, A.D. 2026-Dec-12 00:00:00.0000, -7.244693943601361E+07, -4.617813910319132E+08, -7.322606672483930E+07,
2461393.500000000, A.D. 2026-Dec-19 00:00:00.0000, -6.231801486121442E+07, -4.622107140200870E+08, -7.353279914852139E+07,
2461400.500000000, A.D. 2026-Dec-26 00:00:00.0000, -5.216031494274016E+07, -4.624269050065649E+08, -7.380561786047283E+07,
2461407.500000000, A.D. 2027-Jan-02 00:00:00.0000, -4.197837214035362E+07, -4.624285319524775E+08, -7.404418467022562E+07,
2461414.500000000, A.D. 2027-Jan-09 00:00:00.0000, -3.177678788545615E+07, -4.622142490189439E+08, -7.424817380580917E+07,
2461421.500000000, A.D. 2027-Jan-16 00:00:00.0000, -2.156023162614535E+07, -4.617827996576371E+08, -7.441727241758677E+07,
2461428.500000000, A.D. 2027-Jan-23 00:00:00.0000, -1.133343970425499E+07, -4.611330198709408E+08, -7.455118110406572E+07,
2461435.500000000, A.D. 2027-Jan-30 00:00:00.0000, -1.101213873327829E+06, -4.602638416861091E+08, -7.464961448044789E+07,
2461442.500000000, A.D. 2027-Feb-06 00:00:00.0000, 9.131580970102290E+06, -4.591742964997060E+08, -7.471230180070746E+07,
2461449.500000000, A.D. 2027-Feb-13 00:00:00.0000, 1.936001938429135E+07, -4.578635170682671E+08, -7.473898749079633E+07,
2461456.500000000, A.D. 2027-Feb-20 00:00:00.0000, 2.957911594816421E+07, -4.563307389305125E+08, -7.472943144011977E+07,
2461463.500000000, A.D. 2027-Feb-27 00:00:00.0000, 3.978382519507677E+07, -4.545753044683805E+08, -7.468340944123712E+07,
2461470.500000000, A.D. 2027-Mar-06 00:00:00.0000, 4.996904393688422E+07, -4.525966676789445E+08, -7.460071389707211E+07,
2461477.500000000, A.D. 2027-Mar-13 00:00:00.0000, 6.012961438161460E+07, -4.503943976027268E+08, -7.448115448095611E+07,
2461484.500000000, A.D. 2027-Mar-20 00:00:00.0000, 7.026032691810165E+07, -4.479681812367962E+08, -7.432455871332136E+07,
2461491.500000000, A.D. 2027-Mar-27 00:00:00.0000, 8.035592277194989E+07, -4.453178264739103E+08, -7.413077251719067E+07,
2461498.500000000, A.D. 2027-Apr-03 00:00:00.0000, 9.041109673797034E+07, -4.424432651063398E+08, -7.389966077332574E+07,
2461505.500000000, A.D. 2027-Apr-10 00:00:00.0000, 1.004205000530475E+08, -4.393445558610216E+08, -7.363110787688991E+07,
2461512.500000000, A.D. 2027-Apr-17 00:00:00.0000, 1.103787434352238E+08, -4.360218874699152E+08, -7.332501829714194E+07,
2461519.500000000, A.D. 2027-Apr-24 00:00:00.0000, 1.202804003725312E+08, -4.324755818285571E+08, -7.298131715137434E+07,
2461526.500000000, A.D. 2027-May-01 00:00:00.0000, 1.301200109648201E+08, -4.287060972075759E+08, -7.259995081763011E+07,
2461533.500000000, A.D. 2027-May-08 00:00:00.0000, 1.398920866278250E+08, -4.247140307620459E+08, -7.218088755253017E+07,
2461540.500000000, A.D. 2027-May-15 00:00:00.0000, 1.495911141625092E+08, -4.205001193774697E+08, -7.172411789781517E+07,
2461547.500000000, A.D. 2027-May-22 00:00:00.0000, 1.592115576247320E+08, -4.160652414336832E+08, -7.122965494212627E+07,
2461554.500000000, A.D. 2027-May-29 00:00:00.0000, 1.687478613505079E+08, -4.114104209432408E+08, -7.069753486375359E+07,
2461561.500000000, A.D. 2027-Jun-05 00:00:00.0000, 1.781944550213939E+08, -4.065368309217889E+08, -7.012781757773802E+07,
2461568.500000000, A.D. 2027-Jun-12 00:00:00.0000, 1.875457587612298E+08, -4.014457955482730E+08, -6.952058726608369E+07,
2461575.500000000, A.D. 2027-Jun-19 00:00:00.0000, 1.967961879310444E+08, -3.961387920391043E+08, -6.887595283514602E+07,
2461582.500000000, A.D. 2027-Jun-26 00:00:00.0000, 2.059401578986310E+08, -3.906174524864634E+08, -6.819404834510244E+07,
2461589.500000000, A.D. 2027-Jul-03 00:00:00.0000, 2.149720889110749E+08, -3.848835656412327E+08, -6.747503342078191E+07,
2461596.500000000, A.D. 2027-Jul-10 00:00:00.0000, 2.238864111020986E+08, -3.789390786203187E+08, -6.671909364420167E+07,
2461603.500000000, A.D. 2027-Jul-17 00:00:00.0000, 2.326775696646756E+08, -3.727860985651101E+08, -6.592644093283035E+07,
2461610.500000000, A.D. 2027-Jul-24 00:00:00.0000, 2.413400303391207E+08, -3.664268943014523E+08, -6.509731392054726E+07,
2461617.500000000, A.D. 2027-Jul-31 00:00:00.0000, 2.498682856217806E+08, -3.598638977538936E+08, -6.423197835743381E+07,
2461624.500000000, A.D. 2027-Aug-07 00:00:00.0000, 2.582568614865034E+08, -3.530997039519301E+08, -6.333072741368362E+07,
2461631.500000000, A.D. 2027-Aug-14 00:00:00.0000, 2.665003223089247E+08, -3.461370698710679E+08, -6.239388169507854E+07,
2461638.500000000, A.D. 2027-Aug-21 00:00:00.0000, 2.745932746016065E+08, -3.389789154609034E+08, -6.142178929939319E+07,
2461645.500000000, A.D. 2027-Aug-28 00:00:00.0000, 2.825303729814145E+08, -3.316283256451522E+08, -6.041482612819570E+07,
2461652.500000000, A.D. 2027-Sep-04 00:00:00.0000, 2.903063271784232E+08, -3.240885507818137E+08, -5.937339613989341E+07,
2461659.500000000, A.D. 2027-Sep-11 00:00:00.0000, 2.979159086800538E+08, -3.163630062365742E+08, -5.829793146893403E+07,
2461666.500000000, A.D. 2027-Sep-18 00:00:00.0000, 3.053539571311775E+08, -3.084552717116283E+08, -5.718889247530751E+07,
2461673.500000000, A.D. 2027-Sep-25 00:00:00.0000, 3.126153867055519E+08, -3.003690903997950E+08, -5.604676775045973E+07,
2461680.500000000, A.D. 2027-Oct-02 00:00:00.0000, 3.196951925092250E+08, -2.921083679290833E+08, -5.487207408301802E+07,
2461687.500000000, A.D. 2027-Oct-09 00:00:00.0000, 3.265884570229297E+08, -2.836771710954223E+08, -5.366535638552319E+07,
2461694.500000000, A.D. 2027-Oct-16 00:00:00.0000, 3.332903566301687E+08, -2.750797264318526E+08, -5.242718759119858E+07,
2461701.500000000, A.D. 2027-Oct-23 00:00:00.0000, 3.397961684741391E+08, -2.663204186133634E+08, -5.115816854389004E+07,
2461708.500000000, A.D. 2027-Oct-30 00:00:00.0000, 3.461012780024881E+08, -2.574037880818652E+08, -4.985892786479475E+07,
2461715.500000000, A.D. 2027-Nov-06 00:00:00.0000, 3.522011860211917E+08, -2.483345267610579E+08, -4.853012159656033E+07,
2461722.500000000, A.D. 2027-Nov-13 00:00:00.0000, 3.580915132546787E+08, -2.391174739371610E+08, -4.717243261181262E+07,
2461729.500000000, A.D. 2027-Nov-20 00:00:00.0000, 3.637680052943819E+08, -2.297576144902864E+08, -4.578657023018172E+07,
2461736.500000000, A.D. 2027-Nov-27 00:00:00.0000, 3.692265395343637E+08, -2.202600765115618E+08, -4.437326994938570E+07,
2461743.500000000, A.D. 2027-Dec-04 00:00:00.0000, 3.744631320518973E+08, -2.106301273943172E+08, -4.293329302982633E+07,
2461750.500000000, A.D. 2027-Dec-11 00:00:00.0000, 3.794739438624015E+08, -2.008731693668917E+08, -4.146742596072680E+07,
2461757.500000000, A.D. 2027-Dec-18 00:00:00.0000, 3.842552868025876E+08, -1.909947348097522E+08, -3.997647986051834E+07,
2461764.500000000, A.D. 2027-Dec-25 00:00:00.0000, 3.888036291731852E+08, -1.810004813625822E+08, -3.846128982566072E+07,
2461771.500000000, A.D. 2028-Jan-01 00:00:00.0000, 3.931156011640415E+08, -1.708961868112281E+08, -3.692271423109458E+07,
$$EOE